0 FENGYUN 1C DEB
1 30034U 99025NK  13282.17142378  .00180847  00000-0  10116-1 0  2883
2 30034 097.7786 136.4783 0099544 287.0955 223.2313 15.08507091357068
0 FENGYUN 1C DEB
1 30034U 99025NK  13282.43134440  .00195925  00000-0  10912-1 0  2891
2 30034 097.7785 136.7417 0099243 286.2044 194.8164 15.08619321357102
0 FENGYUN 1C DEB
1 30034U 99025NK  13282.83088919  .00143915  00000-0  80408-2 0  2906
2 30034 097.7785 137.1468 0099148 284.7587 204.9186 15.08736994357161
0 FENGYUN 1C DEB
1 30034U 99025NK  13283.16611547  .00146460  00000-0  81686-2 0  2910
2 30034 097.7788 137.4864 0098772 283.6694 225.6683 15.08817866357212
0 FENGYUN 1C DEB
1 30034U 99025NK  13283.53633149  .00321002  00000-0  18195-1 0  2925
2 30034 097.7810 137.8593 0097866 282.3818 076.6919 15.08927083357273
0 FENGYUN 1C DEB
1 30034U 99025NK  13283.54186698  .00160051  00000-0  88934-2 0  2922
2 30034 097.7787 137.8675 0098596 282.3525 106.7537 15.08904586357266
0 FENGYUN 1C DEB
1 30034U 99025NK  13283.82564894  .00168947  00000-0  93694-2 0  2933
2 30034 097.7789 138.1551 0098422 281.3843 208.3194 15.08949017357317
0 FENGYUN 1C DEB
1 30034U 99025NK  13284.16160019  .00139517  00000-0  77485-2 0  2944
2 30034 097.7788 138.4957 0098200 280.2470 233.3339 15.09041582357362
0 FENGYUN 1C DEB
1 30034U 99025NK  13285.81512186  .00131723  00000-0  72636-2 0  2970
2 30034 097.7788 140.1723 0097170 274.5986 217.3268 15.09406595357616
0 FENGYUN 1C DEB
1 30034U 99025NK  13286.20632850  .00135598  00000-0  74542-2 0  2988
2 30034 097.7786 140.5695 0096896 273.2569 183.1835 15.09519811357675
0 FENGYUN 1C DEB
1 30034U 99025NK  13286.80910404  .00133904  00000-0  73429-2 0  2991
2 30034 097.7784 141.1811 0096708 271.1637 219.0267 15.09628183357766
0 FENGYUN 1C DEB
1 30034U 99025NK  13287.86812538  .00190299  00000-0  10301-1 0  3009
2 30034 097.7780 142.2560 0095617 267.6156 214.9871 15.09926649357920
0 FENGYUN 1C DEB
1 30034U 99025NK  13288.07385904  .00228710  00000-0  12284-1 0  3018
2 30034 097.7771 142.4651 0095882 266.7425 253.5228 15.10016307357957
0 FENGYUN 1C DEB
1 30034U 99025NK  13288.51933969  .00205796  00000-0  11044-1 0  3020
2 30034 097.7769 142.9172 0095473 265.3119 155.2521 15.10174127358015
0 FENGYUN 1C DEB
1 30034U 99025NK  13289.19635689  .00189083  00000-0  10116-1 0  3033
2 30034 097.7769 143.6047 0094877 263.0021 236.2502 15.10397998358122
0 FENGYUN 1C DEB
1 30034U 99025NK  13289.31341102  .00180882  00000-0  96822-2 0  3049
2 30034 097.7767 143.7237 0094929 262.5774 152.7702 15.10410747358132
0 FENGYUN 1C DEB
1 30034U 99025NK  13290.19112832  .00178891  00000-0  95206-2 0  3056
2 30034 097.7766 144.6156 0094273 259.5640 245.8267 15.10670672358271
0 FENGYUN 1C DEB
1 30034U 99025NK  13290.77222851  .00196438  00000-0  10391-1 0  3062
2 30034 097.7766 145.2064 0093896 257.5823 166.3027 15.10837552358359
0 FENGYUN 1C DEB
1 30034U 99025NK  13291.37631663  .00169809  00000-0  89692-2 0  3078
2 30034 097.7765 145.8206 0093535 255.4836 212.2690 15.11028940358455
0 FENGYUN 1C DEB
1 30034U 99025NK  13292.17863431  .00158827  00000-0  83552-2 0  3085
2 30034 097.7769 146.6364 0092728 252.7475 257.0474 15.11278325358579
0 FENGYUN 1C DEB
1 30034U 99025NK  13293.55125225  .00166893  00000-0  86904-2 0  3097
2 30034 097.7763 148.0332 0091696 247.9284 166.1342 15.11677020358772
0 FENGYUN 1C DEB
1 30034U 99025NK  13294.61187778  .00201994  00000-0  10401-1 0  3108
2 30034 097.7764 149.1133 0090784 244.1843 178.9146 15.11986397358932
0 FENGYUN 1C DEB
1 30034U 99025NK  13295.53722522  .00210060  00000-0  10727-1 0  3118
2 30034 097.7758 150.0559 0090321 240.9683 176.3367 15.12274458359073
0 FENGYUN 1C DEB
1 30034U 99025NK  13295.86972492  .00211829  00000-0  10794-1 0  3126
2 30034 097.7763 150.3943 0089905 239.8050 186.6556 15.12372977359125
